EUTELSAT 8 WEST B       
1 40875U 15039B   25270.21577413 -.00000061  00000+0  00000+0 0  9994
2 40875   0.0671 356.4832 0003741 192.1225 247.3600  1.00271075 37025
EUTELSAT 9B             
1 41310U 16005A   25270.21906748  .00000067  00000+0  00000+0 0  9995
2 41310   0.0590  67.7960 0002454 154.5007 231.8282  1.00273181 35486
EUTELSAT 65 WEST A      
1 41382U 16014A   25270.56120267 -.00000272  00000+0  00000+0 0  9995
2 41382   0.0571  15.5554 0002162 163.8467 324.0467  1.00273676 34908
EUTELSAT 117 WEST B     
1 41589U 16038B   25270.55097596 -.00000007  00000+0  00000+0 0  9993
2 41589   0.0158  34.6658 0000245 208.7857 204.4994  1.00270983 34024
EUTELSAT 172B           
1 42741U 17029B   25270.46555560  .00000000  00000+0  00000+0 0  9997
2 42741   0.0171 168.1000 0000387 255.4457 282.5797  1.00274337 31095
EUTELSAT 7C             
1 44334U 19034B   25270.21872081  .00000053  00000+0  00000+0 0  9996
2 44334   0.0682 183.9444 0003283 342.3012 285.7644  1.00272033  4198
EUTELSAT 5 WEST B       
1 44624U 19067A   25270.28762110 -.00000037  00000+0  00000+0 0  9995
2 44624   0.0678 345.9418 0003089 198.9993 279.9421  1.00272015 21808
EUTELSAT KONNECT        
1 45027U 20005B   25270.21872081  .00000054  00000+0  00000+0 0  9997
2 45027   0.0650  96.7131 0001495  66.5976 288.8878  1.00269801 21689
